QIANFAN-60              
1 62790U 25016F   26017.25658026  .00000151  00000+0  21551-3 0  9991
2 62790  88.9746  99.4049 0014573 235.1437 124.8344 13.50995661 52028
QIANFAN-61              
1 62791U 25016G   26017.28953145  .00000153  00000+0  21838-3 0  9995
2 62791  88.9814  99.5887 0013530 234.0130 125.9768 13.50985907 52042
QIANFAN-62              
1 62792U 25016H   26017.29366443  .00000157  00000+0  22390-3 0  9994
2 62792  88.9760  99.4374 0014900 234.9305 125.0450 13.50988580 52036
QIANFAN-63              
1 62793U 25016J   26017.24426370  .00000141  00000+0  19967-3 0  9995
2 62793  88.9767  99.3964 0014821 240.8751 119.0917 13.50986643 52063
QIANFAN-64              
1 62794U 25016K   26017.28540165  .00000156  00000+0  22280-3 0  9997
2 62794  88.9753  99.3615 0012946 232.2642 127.7337 13.50985266 52064
QIANFAN-65              
1 62795U 25016L   26017.28133864  .00000161  00000+0  23104-3 0  9994
2 62795  88.9750  99.3866 0012752 234.0416 125.9553 13.50983914 52040
QIANFAN-66              
1 62796U 25016M   26017.23604153  .00000136  00000+0  19271-3 0  9996
2 62796  88.9769  99.3684 0013973 229.9853 130.0073 13.50988708 52087
QIANFAN-67              
1 62797U 25016N   26017.24017887  .00000141  00000+0  20039-3 0  9990
2 62797  88.9760  99.3901 0013751 237.3863 122.5962 13.50992924 52054
QIANFAN-68              
1 62798U 25016P   26017.30598963  .00000152  00000+0  21705-3 0  9990
2 62798  88.9763  99.4298 0013861 235.2696 124.7150 13.50984955 52048
QIANFAN-69              
1 62799U 25016Q   26017.24837547  .00000154  00000+0  21973-3 0  9997
2 62799  88.9742  99.2975 0014562 236.9680 123.0073 13.50985256 52070
QIANFAN-70              
1 62800U 25016R   26017.26490274  .00000150  00000+0  21308-3 0  9992
2 62800  88.9763  99.4418 0014440 226.4034 133.5919 13.50989106 52031
QIANFAN-71              
1 62801U 25016S   26017.26070863  .00000149  00000+0  21253-3 0  9998
2 62801  88.9757  99.4195 0014389 240.7357 119.2356 13.50988451 52034
QIANFAN-72              
1 62802U 25016T   26017.27715677  .00000157  00000+0  22413-3 0  9997
2 62802  88.9747  99.4277 0017472 249.4525 110.4752 13.50988376 52022
QIANFAN-73              
1 63159U 25046A   26017.30430639  .00000166  00000+0  23795-3 0  9996
2 63159  88.9793 316.3469 0016313  26.7357 333.4631 13.50989312 52210
QIANFAN-74              
1 63160U 25046B   26017.28777393  .00000161  00000+0  23122-3 0  9995
2 63160  88.9793 316.2374 0001890  68.6545 291.4808 13.50986435 52272
QIANFAN-75              
1 63161U 25046C   26017.27494464  .00000178  00000+0  25645-3 0  9990
2 63161  88.9795 316.4728 0017595  29.0689 331.1438 13.50989710 52145
QIANFAN-76              
1 63162U 25046D   26017.27158233  .00000168  00000+0  24172-3 0  9995
2 63162  88.9794 316.4536 0015167  30.3953 329.8074 13.50991768 52151
QIANFAN-77              
1 63163U 25046E   26017.30683807  .00000392  00000+0  27603-3 0  9991
2 63163  88.9793 314.1655 0014485 338.3377  21.7186 13.96123499 53411
QIANFAN-78              
1 63164U 25046F   26017.23843135  .00000173  00000+0  24860-3 0  9995
2 63164  88.9793 316.3207 0016586  32.0776 328.1381 13.50990686 52223
QIANFAN-79              
1 63165U 25046G   26017.26708579  .00000179  00000+0  25887-3 0  9997
2 63165  88.9797 316.4266 0016259  30.5838 329.6258 13.50987805 52175
QIANFAN-80              
1 63166U 25046H   26017.28361976  .00000170  00000+0  24477-3 0  9991
2 63166  88.9794 316.1309 0015303  34.6353 325.5792 13.50990586 52330
QIANFAN-81              
1 63167U 25046J   26017.26132352  .00000180  00000+0  26039-3 0  9991
2 63167  88.9794 316.2010 0016056  23.8919 336.2974 13.51016691 52287
QIANFAN-82              
1 63168U 25046K   26017.29609014  .00000180  00000+0  25927-3 0  9994
2 63168  88.9794 316.2415 0014378  31.6259 328.5753 13.50989670 52279
QIANFAN-83              
1 63169U 25046L   26017.25667024  .00000213  00000+0  26089-3 0  9993
2 63169  88.9795 315.9522 0015227  16.2861 343.8783 13.61991885 52432
QIANFAN-84              
1 63170U 25046M   26017.24955657  .00000169  00000+0  24230-3 0  9992
2 63170  88.9794 316.3787 0017253  27.5646 332.6417 13.50999319 52199
QIANFAN-85              
1 63171U 25046N   26017.24658118  .00000162  00000+0  23279-3 0  9990
2 63171  88.9793 316.2507 0014715  30.5296 329.6709 13.50988436 52269
QIANFAN-86              
1 63172U 25046P   26017.25490477  .00000177  00000+0  25590-3 0  9998
2 63172  88.9796 316.1128 0012693  35.1997 324.9990 13.50990332 52340
QIANFAN-87              
1 63173U 25046Q   26017.30035631  .00000177  00000+0  25581-3 0  9992
2 63173  88.9792 316.2184 0013229  30.6668 329.5253 13.50987988 52280
QIANFAN-88              
1 63174U 25046R   26017.16839400  .00000168  00000+0  24207-3 0  9997
2 63174  88.9794 316.1875 0013802  37.8801 322.3318 13.50994125 52299
QIANFAN-89              
1 63175U 25046S   26017.27942104  .00000167  00000+0  23975-3 0  9996
2 63175  88.9794 316.3651 0017942  27.6111 332.5990 13.50990638 52209
QIANFAN-90              
1 63176U 25046T   26017.23409776  .00000178  00000+0  25628-3 0  9995
2 63176  88.9794 316.3421 0014846  27.1834 333.0092 13.50990194 52219
QIANFAN-91              
1 66033U 25233A   26017.34089269  .00000053  00000+0  64047-4 0  9992
2 66033  88.9919  58.4812 0001958  91.5057 268.6318 13.50989634 12816
QIANFAN-92              
1 66034U 25233B   26017.27411577  .00000069  00000+0  90249-4 0  9996
2 66034  88.9903  58.4841 0013878 296.8361  63.1370 13.50258617 12809
QIANFAN-93              
1 66035U 25233C   26017.20916627  .00000092  00000+0  12462-3 0  9992
2 66035  88.9923  58.5024 0009349 298.3286  61.6921 13.50959312 12790
QIANFAN-94              
1 66036U 25233D   26017.03202136  .00000099  00000+0  10658-3 0  9999
2 66036  88.9931  58.4422 0013648 294.2616  65.7117 13.65572519 12811
QIANFAN-95              
1 66037U 25233E   26017.08326756  .00000067  00000+0  38539-4 0  9994
2 66037  88.9915  58.0963 0010955 290.4520  69.5481 13.97225175 13006
QIANFAN-96              
1 66038U 25233F   26017.22979573  .00000042  00000+0  46033-4 0  9993
2 66038  88.9922  58.5030 0001927  90.5463 269.5909 13.50990244 12796
QIANFAN-97              
1 66039U 25233G   26017.06521752  .00000092  00000+0  12450-3 0  9998
2 66039  88.9928  58.4990 0001181  82.9935 277.1350 13.50951035 12787
QIANFAN-98              
1 66040U 25233H   26017.03191586  .00000111  00000+0  94272-4 0  9990
2 66040  88.9919  58.2932 0012713 295.6968  64.2886 13.79956704 12895
QIANFAN-99              
1 66041U 25233J   26017.15157941  .00000060  00000+0  73939-4 0  9991
2 66041  88.9923  58.4931 0006497 299.1585  60.8916 13.50956054 12790
QIANFAN-100             
1 66042U 25233K   26017.06928556  .00000039  00000+0  41620-4 0  9998
2 66042  88.9935  58.4116 0006629 300.5482  59.5015 13.50961340 12833
QIANFAN-101             
1 66043U 25233L   26017.22581871  .00000186  00000+0  71013-4 0  9994
2 66043  88.9925  57.9360 0012508 280.1409  79.8373 14.26694799 13101
QIANFAN-102             
1 66044U 25233M   26017.02774233  .00000091  00000+0  99630-4 0  9999
2 66044  88.9920  58.4390 0013003 298.0491  61.9352 13.63668419 12812
QIANFAN-103             
1 66045U 25233N   26017.09393259  .00000072  00000+0  92839-4 0  9995
2 66045  88.9930  58.5037 0009267 300.4464  59.5771 13.50990757 12781
QIANFAN-104             
1 66046U 25233P   26017.03159259  .00000104  00000+0  10405-3 0  9994
2 66046  88.9930  58.4247 0012223 301.7576  58.2395 13.70194582 12825
QIANFAN-105             
1 66047U 25233Q   26017.07753781  .00000126  00000+0  98032-4 0  9996
2 66047  88.9923  58.2828 0012309 292.1601  67.8263 13.86149625 12902
QIANFAN-106             
1 66048U 25233R   26017.25028711  .00000072  00000+0  92822-4 0  9996
2 66048  88.9912  58.4658 0013104 291.0063  68.9686 13.50986407 12817
QIANFAN-107             
1 66049U 25233S   26017.33263773  .00000061  00000+0  75827-4 0  9999
2 66049  88.9928  58.4660 0001184  96.7964 263.3322 13.51017805 12820
QIANFAN-108             
1 66050U 25233T   26017.18854935  .00000082  00000+0  10938-3 0  9994
2 66050  88.9922  58.4789 0012363 297.0957  62.8932 13.50539621 12808
